{"type": "FeatureCollection", "features": [ {"type": "Feature", "properties": {"norad_id": 57401, "name": "TIANMU-1 09", "group": "weather", "lat": -63.82731326249708, "lon": 40.93531676517347, "alt_km": 494.0988431637743, "timestamp": "2025-12-02T10:50:46.915729+00:00", "meta": {"OBJECT_NAME": "TIANMU-1 09", "OBJECT_ID": "2023-101C", "EPOCH": "2025-12-02T04:50:32.680896", "MEAN_MOTION": 15.27837071, "ECCENTRICITY": 0.0006706, "INCLINATION": 97.2844, "RA_OF_ASC_NODE": 25.6046, "ARG_OF_PERICENTER": 112.6109, "MEAN_ANOMALY": 247.584, "EPHEMERIS_TYPE": 0, "CLASSIFICATION_TYPE": "U", "NORAD_CAT_ID": 57401, "ELEMENT_SET_NO": 999, "REV_AT_EPOCH": 13154, "BSTAR": 0.00034323, "MEAN_MOTION_DOT": 9.265e-05, "MEAN_MOTION_DDOT": 0}, "tle": {"line1": "1 57401U 23101C   25336.20176714  .00009265  00000+0  34323-3 0  9990", "line2": "2 57401  97.2844  25.6046 0006706 112.6109 247.5840 15.27837071131540"}}, "geometry": {"type": "Point", "coordinates": [40.93531676517347, -63.82731326249708]}}, {"type": "Feature", "properties": {"norad_id": 57402, "name": "TIANMU-1 10", "group": "weather", "lat": 71.03380030695558, "lon": -131.4339864449176, "alt_km": 469.68712999090076, "timestamp": "2025-12-02T10:50:46.915739+00:00", "meta": {"OBJECT_NAME": "TIANMU-1 10", "OBJECT_ID": "2023-101D", "EPOCH": "2025-12-02T04:05:25.100160", "MEAN_MOTION": 15.27826489, "ECCENTRICITY": 0.0008448, "INCLINATION": 97.2926, "RA_OF_ASC_NODE": 26.4126, "ARG_OF_PERICENTER": 113.9986, "MEAN_ANOMALY": 246.2139, "EPHEMERIS_TYPE": 0, "CLASSIFICATION_TYPE": "U", "NORAD_CAT_ID": 57402, "ELEMENT_SET_NO": 999, "REV_AT_EPOCH": 13153, "BSTAR": 0.00035101, "MEAN_MOTION_DOT": 9.477e-05, "MEAN_MOTION_DDOT": 0}, "tle": {"line1": "1 57402U 23101D   25336.17042940  .00009477  00000+0  35101-3 0  9990", "line2": "2 57402  97.2926  26.4126 0008448 113.9986 246.2139 15.27826489131539"}}, "geometry": {"type": "Point", "coordinates": [-131.4339864449176, 71.03380030695558]}}, {"type": "Feature", "properties": {"norad_id": 57490, "name": "FENGYUN 3F", "group": "weather", "lat": 41.95122495616486, "lon": 36.99078654867882, "alt_km": 821.890347299106, "timestamp": "2025-12-02T10:50:46.915753+00:00", "meta": {"OBJECT_NAME": "FENGYUN 3F", "OBJECT_ID": "2023-111A", "EPOCH": "2025-12-02T03:52:54.221952", "MEAN_MOTION": 14.198889, "ECCENTRICITY": 7.08e-05, "INCLINATION": 98.7097, "RA_OF_ASC_NODE": 44.6252, "ARG_OF_PERICENTER": 84.0509, "MEAN_ANOMALY": 276.0748, "EPHEMERIS_TYPE": 0, "CLASSIFICATION_TYPE": "U", "NORAD_CAT_ID": 57490, "ELEMENT_SET_NO": 999, "REV_AT_EPOCH": 12090, "BSTAR": 7.0161e-05, "MEAN_MOTION_DOT": 1.05e-06, "MEAN_MOTION_DDOT": 0}, "tle": {"line1": "1 57490U 23111A   25336.16173868  .00000105  00000+0  70161-4 0  9996", "line2": "2 57490  98.7097  44.6252 0000708  84.0509 276.0748 14.19888900120905"}}, "geometry": {"type": "Point", "coordinates": [36.99078654867882, 41.95122495616486]}}, {"type": "Feature", "properties": {"norad_id": 58584, "name": "ARKTIKA-M 2", "group": "weather", "lat": 50.47746168700066, "lon": -146.23772475165958, "alt_km": 29103.351511342324, "timestamp": "2025-12-02T10:50:46.915765+00:00", "meta": {"OBJECT_NAME": "ARKTIKA-M 2", "OBJECT_ID": "2023-198A", "EPOCH": "2025-12-01T08:43:04.634112", "MEAN_MOTION": 2.00605427, "ECCENTRICITY": 0.6864029, "INCLINATION": 63.2218, "RA_OF_ASC_NODE": 176.1298, "ARG_OF_PERICENTER": 268.1507, "MEAN_ANOMALY": 18.8441, "EPHEMERIS_TYPE": 0, "CLASSIFICATION_TYPE": "U", "NORAD_CAT_ID": 58584, "ELEMENT_SET_NO": 999, "REV_AT_EPOCH": 1435, "BSTAR": 0, "MEAN_MOTION_DOT": 2.37e-06, "MEAN_MOTION_DDOT": 0}, "tle": {"line1": "1 58584U 23198A   25335.36324808  .00000237  00000+0  00000+0 0  9995", "line2": "2 58584  63.2218 176.1298 6864029 268.1507  18.8441  2.00605427 14357"}}, "geometry": {"type": "Point", "coordinates": [-146.23772475165958, 50.47746168700066]}}, {"type": "Feature", "properties": {"norad_id": 58645, "name": "TIANMU-1 11", "group": "weather", "lat": 53.71257430036077, "lon": -13.884077867259549, "alt_km": 484.85636995587447, "timestamp": "2025-12-02T10:50:46.915777+00:00", "meta": {"OBJECT_NAME": "TIANMU-1 11", "OBJECT_ID": "2023-205A", "EPOCH": "2025-12-02T04:18:26.728128", "MEAN_MOTION": 15.24395946, "ECCENTRICITY": 0.0008994, "INCLINATION": 97.3617, "RA_OF_ASC_NODE": 355.9901, "ARG_OF_PERICENTER": 351.4606, "MEAN_ANOMALY": 8.6477, "EPHEMERIS_TYPE": 0, "CLASSIFICATION_TYPE": "U", "NORAD_CAT_ID": 58645, "ELEMENT_SET_NO": 999, "REV_AT_EPOCH": 10748, "BSTAR": 0.00028899, "MEAN_MOTION_DOT": 7.02e-05, "MEAN_MOTION_DDOT": 0}, "tle": {"line1": "1 58645U 23205A   25336.17947602  .00007020  00000+0  28899-3 0  9992", "line2": "2 58645  97.3617 355.9901 0008994 351.4606   8.6477 15.24395946107480"}}, "geometry": {"type": "Point", "coordinates": [-13.884077867259549, 53.71257430036077]}}, {"type": "Feature", "properties": {"norad_id": 58646, "name": "TIANMU-1 12", "group": "weather", "lat": -82.6311256782156, "lon": 84.34854343822875, "alt_km": 498.34475534793273, "timestamp": "2025-12-02T10:50:46.915787+00:00", "meta": {"OBJECT_NAME": "TIANMU-1 12", "OBJECT_ID": "2023-205B", "EPOCH": "2025-12-02T03:21:42.839424", "MEAN_MOTION": 15.24307306, "ECCENTRICITY": 0.000678, "INCLINATION": 97.3605, "RA_OF_ASC_NODE": 355.7604, "ARG_OF_PERICENTER": 337.5719, "MEAN_ANOMALY": 22.5221, "EPHEMERIS_TYPE": 0, "CLASSIFICATION_TYPE": "U", "NORAD_CAT_ID": 58646, "ELEMENT_SET_NO": 999, "REV_AT_EPOCH": 10746, "BSTAR": 0.00032909, "MEAN_MOTION_DOT": 7.98e-05, "MEAN_MOTION_DDOT": 0}, "tle": {"line1": "1 58646U 23205B   25336.14007916  .00007980  00000+0  32909-3 0  9997", "line2": "2 58646  97.3605 355.7604 0006780 337.5719  22.5221 15.24307306107460"}}, "geometry": {"type": "Point", "coordinates": [84.34854343822875, -82.6311256782156]}}, {"type": "Feature", "properties": {"norad_id": 58647, "name": "TIANMU-1 13", "group": "weather", "lat": 81.35339800288027, "lon": -61.98915753715361, "alt_km": 488.37978581339485, "timestamp": "2025-12-02T10:50:46.915800+00:00", "meta": {"OBJECT_NAME": "TIANMU-1 13", "OBJECT_ID": "2023-205C", "EPOCH": "2025-12-02T05:44:47.044896", "MEAN_MOTION": 15.24315729, "ECCENTRICITY": 0.0006475, "INCLINATION": 97.3632, "RA_OF_ASC_NODE": 356.0546, "ARG_OF_PERICENTER": 314.2389, "MEAN_ANOMALY": 45.8316, "EPHEMERIS_TYPE": 0, "CLASSIFICATION_TYPE": "U", "NORAD_CAT_ID": 58647, "ELEMENT_SET_NO": 999, "REV_AT_EPOCH": 10747, "BSTAR": 0.00031143, "MEAN_MOTION_DOT": 7.549e-05, "MEAN_MOTION_DDOT": 0}, "tle": {"line1": "1 58647U 23205C   25336.23943339  .00007549  00000+0  31143-3 0  9996", "line2": "2 58647  97.3632 356.0546 0006475 314.2389  45.8316 15.24315729107478"}}, "geometry": {"type": "Point", "coordinates": [-61.98915753715361, 81.35339800288027]}}, {"type": "Feature", "properties": {"norad_id": 58648, "name": "TIANMU-1 14", "group": "weather", "lat": 2.8547475421075696, "lon": 175.99079889281384, "alt_km": 499.52067139882456, "timestamp": "2025-12-02T10:50:46.915811+00:00", "meta": {"OBJECT_NAME": "TIANMU-1 14", "OBJECT_ID": "2023-205D", "EPOCH": "2025-12-02T05:20:43.075392", "MEAN_MOTION": 15.2429999, "ECCENTRICITY": 0.0007404, "INCLINATION": 97.3564, "RA_OF_ASC_NODE": 355.3967, "ARG_OF_PERICENTER": 318.3316, "MEAN_ANOMALY": 41.7357, "EPHEMERIS_TYPE": 0, "CLASSIFICATION_TYPE": "U", "NORAD_CAT_ID": 58648, "ELEMENT_SET_NO": 999, "REV_AT_EPOCH": 10747, "BSTAR": 0.000325, "MEAN_MOTION_DOT": 7.879e-05, "MEAN_MOTION_DDOT": 0}, "tle": {"line1": "1 58648U 23205D   25336.22272078  .00007879  00000+0  32500-3 0  9995", "line2": "2 58648  97.3564 355.3967 0007404 318.3316  41.7357 15.24299990107471"}}, "geometry": {"type": "Point", "coordinates": [175.99079889281384, 2.8547475421075696]}}, {"type": "Feature", "properties": {"norad_id": 58660, "name": "TIANMU-1 19", "group": "weather", "lat": -49.46555724433415, "lon": 96.30078250316262, "alt_km": 487.2605371576565, "timestamp": "2025-12-02T10:50:46.915821+00:00", "meta": {"OBJECT_NAME": "TIANMU-1 19", "OBJECT_ID": "2023-208A", "EPOCH": "2025-12-02T04:46:34.628160", "MEAN_MOTION": 15.27544067, "ECCENTRICITY": 0.0004177, "INCLINATION": 97.4389, "RA_OF_ASC_NODE": 87.2595, "ARG_OF_PERICENTER": 299.9305, "MEAN_ANOMALY": 60.1519, "EPHEMERIS_TYPE": 0, "CLASSIFICATION_TYPE": "U", "NORAD_CAT_ID": 58660, "ELEMENT_SET_NO": 999, "REV_AT_EPOCH": 10721, "BSTAR": 0.00044957, "MEAN_MOTION_DOT": 0.00012047, "MEAN_MOTION_DDOT": 0}, "tle": {"line1": "1 58660U 23208A   25336.19901190  .00012047  00000+0  44957-3 0  9994", "line2": "2 58660  97.4389  87.2595 0004177 299.9305  60.1519 15.27544067107213"}}, "geometry": {"type": "Point", "coordinates": [96.30078250316262, -49.46555724433415]}}, {"type": "Feature", "properties": {"norad_id": 58661, "name": "TIANMU-1 20", "group": "weather", "lat": -19.689498674495745, "lon": 90.62678685169502, "alt_km": 481.00580731119226, "timestamp": "2025-12-02T10:50:46.915831+00:00", "meta": {"OBJECT_NAME": "TIANMU-1 20", "OBJECT_ID": "2023-208B", "EPOCH": "2025-12-02T04:38:57.319872", "MEAN_MOTION": 15.28737613, "ECCENTRICITY": 0.0006533, "INCLINATION": 97.4326, "RA_OF_ASC_NODE": 87.6914, "ARG_OF_PERICENTER": 309.5949, "MEAN_ANOMALY": 50.4713, "EPHEMERIS_TYPE": 0, "CLASSIFICATION_TYPE": "U", "NORAD_CAT_ID": 58661, "ELEMENT_SET_NO": 999, "REV_AT_EPOCH": 10728, "BSTAR": 0.00044046, "MEAN_MOTION_DOT": 0.00012244, "MEAN_MOTION_DDOT": 0}, "tle": {"line1": "1 58661U 23208B   25336.19371898  .00012244  00000+0  44046-3 0  9999", "line2": "2 58661  97.4326  87.6914 0006533 309.5949  50.4713 15.28737613107281"}}, "geometry": {"type": "Point", "coordinates": [90.62678685169502, -19.689498674495745]}}]}